[{"OBJECT_NAME":"YAOGAN-30 04B","OBJECT_ID":"2017-085B","EPOCH":"2026-03-09T23:08:06.218304","MEAN_MOTION":15.02136468,"ECCENTRICITY":0.00051709,"INCLINATION":34.9961,"RA_OF_ASC_NODE":34.6701,"ARG_OF_PERICENTER":206.1156,"MEAN_ANOMALY":153.9292,"EPHEMERIS_TYPE":0,"CLASSIFICATION_TYPE":"U","NORAD_CAT_ID":43082,"ELEMENT_SET_NO":999,"REV_AT_EPOCH":44776,"BSTAR":0.0003202307,"MEAN_MOTION_DOT":4.272e-5,"MEAN_MOTION_DDOT":0},{"OBJECT_NAME":"STARLINK-34373","OBJECT_ID":"2025-158N","EPOCH":"2026-03-09T15:02:29.418432","MEAN_MOTION":15.05649454,"ECCENTRICITY":0.0003423,"INCLINATION":97.6023,"RA_OF_ASC_NODE":293.9826,"ARG_OF_PERICENTER":86.373,"MEAN_ANOMALY":273.7888,"EPHEMERIS_TYPE":0,"CLASSIFICATION_TYPE":"U","NORAD_CAT_ID":64944,"ELEMENT_SET_NO":999,"REV_AT_EPOCH":3534,"BSTAR":0.00024766,"MEAN_MOTION_DOT":3.515e-5,"MEAN_MOTION_DDOT":0}]
